{
  "type": "FeatureCollection",
  "features": [
    {
      "type": "Feature",
      "properties": {
        "norad_id": 34540,
        "name": "IRIDIUM 33 DEB",
        "group": "iridium-33-debris",
        "lat": 49.56268850496314,
        "lon": 128.03601090557828,
        "alt_km": 637.0209440761773,
        "timestamp": "2025-12-02T07:10:09.501114+00:00",
        "meta_object_name": "IRIDIUM 33 DEB",
        "meta_object_id": "1997-051JH",
        "meta_epoch": "2025-12-01T16:42:41.050944",
        "meta_mean_motion": 14.74936502,
        "meta_eccentricity": 0.0014607,
        "meta_inclination": 86.3093,
        "meta_ra_of_asc_node": 312.6552,
        "meta_arg_of_pericenter": 200.1252,
        "meta_mean_anomaly": 333.6628,
        "meta_ephemeris_type": 0,
        "meta_classification_type": "U",
        "meta_norad_cat_id": 34540,
        "meta_element_set_no": 999,
        "meta_rev_at_epoch": 88858,
        "meta_bstar": 0.001678,
        "meta_mean_motion_dot": 0.00011318,
        "meta_mean_motion_ddot": 0,
        "tle_line1": "1 34540U 97051JH  25335.69630846  .00011318  00000+0  16780-2 0  9995",
        "tle_line2": "2 34540  86.3093 312.6552 0014607 200.1252 333.6628 14.74936502888580"
      },
      "geometry": {
        "type": "Point",
        "coordinates": [
          128.03601090557828,
          49.56268850496314
        ]
      }
    },
    {
      "type": "Feature",
      "properties": {
        "norad_id": 34648,
        "name": "IRIDIUM 33 DEB",
        "group": "iridium-33-debris",
        "lat": 23.93941867667804,
        "lon": 104.55349212453918,
        "alt_km": 990.3582367058698,
        "timestamp": "2025-12-02T07:10:09.501124+00:00",
        "meta_object_name": "IRIDIUM 33 DEB",
        "meta_object_id": "1997-051JZ",
        "meta_epoch": "2025-12-01T03:11:38.418720",
        "meta_mean_motion": 14.1087899,
        "meta_eccentricity": 0.01868529,
        "meta_inclination": 86.3903,
        "meta_ra_of_asc_node": 286.6295,
        "meta_arg_of_pericenter": 334.6513,
        "meta_mean_anomaly": 24.5588,
        "meta_ephemeris_type": 0,
        "meta_classification_type": "U",
        "meta_norad_cat_id": 34648,
        "meta_element_set_no": 999,
        "meta_rev_at_epoch": 84797,
        "meta_bstar": 0.0079356223,
        "meta_mean_motion_dot": 0.00016788,
        "meta_mean_motion_ddot": 0,
        "tle_line1": "1 34648U 97051JZ  25335.13308355  .00016788  00000+0  79356-2 0  9994",
        "tle_line2": "2 34648  86.3903 286.6295 0186852 334.6513  24.5588 14.10878990847973"
      },
      "geometry": {
        "type": "Point",
        "coordinates": [
          104.55349212453918,
          23.93941867667804
        ]
      }
    },
    {
      "type": "Feature",
      "properties": {
        "norad_id": 34651,
        "name": "IRIDIUM 33 DEB",
        "group": "iridium-33-debris",
        "lat": 31.907625437673747,
        "lon": 147.33558826870188,
        "alt_km": 896.9884387280053,
        "timestamp": "2025-12-02T07:10:09.501135+00:00",
        "meta_object_name": "IRIDIUM 33 DEB",
        "meta_object_id": "1997-051KC",
        "meta_epoch": "2025-11-29T18:22:04.604448",
        "meta_mean_motion": 14.2548519,
        "meta_eccentricity": 0.01418643,
        "meta_inclination": 86.2831,
        "meta_ra_of_asc_node": 146.0932,
        "meta_arg_of_pericenter": 245.3191,
        "meta_mean_anomaly": 113.3174,
        "meta_ephemeris_type": 0,
        "meta_classification_type": "U",
        "meta_norad_cat_id": 34651,
        "meta_element_set_no": 999,
        "meta_rev_at_epoch": 85711,
        "meta_bstar": 0.0028410967,
        "meta_mean_motion_dot": 7.476e-05,
        "meta_mean_motion_ddot": 0,
        "tle_line1": "1 34651U 97051KC  25333.76533107  .00007476  00000+0  28411-2 0  9990",
        "tle_line2": "2 34651  86.2831 146.0932 0141864 245.3191 113.3174 14.25485190857114"
      },
      "geometry": {
        "type": "Point",
        "coordinates": [
          147.33558826870188,
          31.907625437673747
        ]
      }
    },
    {
      "type": "Feature",
      "properties": {
        "norad_id": 34652,
        "name": "IRIDIUM 33 DEB",
        "group": "iridium-33-debris",
        "lat": 19.826263950067634,
        "lon": 163.32573561443857,
        "alt_km": 706.4035858914613,
        "timestamp": "2025-12-02T07:10:09.501145+00:00",
        "meta_object_name": "IRIDIUM 33 DEB",
        "meta_object_id": "1997-051KD",
        "meta_epoch": "2025-12-01T11:25:31.813824",
        "meta_mean_motion": 14.61886843,
        "meta_eccentricity": 0.00271811,
        "meta_inclination": 86.3317,
        "meta_ra_of_asc_node": 345.0171,
        "meta_arg_of_pericenter": 338.4925,
        "meta_mean_anomaly": 174.8629,
        "meta_ephemeris_type": 0,
        "meta_classification_type": "U",
        "meta_norad_cat_id": 34652,
        "meta_element_set_no": 999,
        "meta_rev_at_epoch": 88319,
        "meta_bstar": 0.0011387306,
        "meta_mean_motion_dot": 5.745e-05,
        "meta_mean_motion_ddot": 0,
        "tle_line1": "1 34652U 97051KD  25335.47606266  .00005745  00000+0  11387-2 0  9999",
        "tle_line2": "2 34652  86.3317 345.0171 0027181 338.4925 174.8629 14.61886843883199"
      },
      "geometry": {
        "type": "Point",
        "coordinates": [
          163.32573561443857,
          19.826263950067634
        ]
      }
    },
    {
      "type": "Feature",
      "properties": {
        "norad_id": 34690,
        "name": "IRIDIUM 33 DEB",
        "group": "iridium-33-debris",
        "lat": -77.18063956164809,
        "lon": 25.372138873565028,
        "alt_km": 722.9175338913137,
        "timestamp": "2025-12-02T07:10:09.501155+00:00",
        "meta_object_name": "IRIDIUM 33 DEB",
        "meta_object_id": "1997-051KM",
        "meta_epoch": "2025-11-30T04:29:28.709376",
        "meta_mean_motion": 14.55018885,
        "meta_eccentricity": 0.00120076,
        "meta_inclination": 86.3793,
        "meta_ra_of_asc_node": 42.4459,
        "meta_arg_of_pericenter": 66.3956,
        "meta_mean_anomaly": 322.5053,
        "meta_ephemeris_type": 0,
        "meta_classification_type": "U",
        "meta_norad_cat_id": 34690,
        "meta_element_set_no": 999,
        "meta_rev_at_epoch": 87912,
        "meta_bstar": 0.00049664139,
        "meta_mean_motion_dot": 2.161e-05,
        "meta_mean_motion_ddot": 0,
        "tle_line1": "1 34690U 97051KM  25334.18713784  .00002161  00000+0  49664-3 0  9991",
        "tle_line2": "2 34690  86.3793  42.4459 0012007  66.3956 322.5053 14.55018885879125"
      },
      "geometry": {
        "type": "Point",
        "coordinates": [
          25.372138873565028,
          -77.18063956164809
        ]
      }
    },
    {
      "type": "Feature",
      "properties": {
        "norad_id": 34693,
        "name": "IRIDIUM 33 DEB",
        "group": "iridium-33-debris",
        "lat": -4.9194918378515125,
        "lon": 129.31571283148048,
        "alt_km": 502.0171002691486,
        "timestamp": "2025-12-02T07:10:09.501166+00:00",
        "meta_object_name": "IRIDIUM 33 DEB",
        "meta_object_id": "1997-051KQ",
        "meta_epoch": "2025-11-30T23:07:01.388928",
        "meta_mean_motion": 15.23975533,
        "meta_eccentricity": 0.00160601,
        "meta_inclination": 86.3054,
        "meta_ra_of_asc_node": 309.6565,
        "meta_arg_of_pericenter": 71.8143,
        "meta_mean_anomaly": 350.1616,
        "meta_ephemeris_type": 0,
        "meta_classification_type": "U",
        "meta_norad_cat_id": 34693,
        "meta_element_set_no": 999,
        "meta_rev_at_epoch": 88735,
        "meta_bstar": 0.0041949238,
        "meta_mean_motion_dot": 0.0010311,
        "meta_mean_motion_ddot": 0,
        "tle_line1": "1 34693U 97051KQ  25334.96321052  .00103110  00000+0  41949-2 0  9996",
        "tle_line2": "2 34693  86.3054 309.6565 0016060  71.8143 350.1616 15.23975533887350"
      },
      "geometry": {
        "type": "Point",
        "coordinates": [
          129.31571283148048,
          -4.9194918378515125
        ]
      }
    },
    {
      "type": "Feature",
      "properties": {
        "norad_id": 34696,
        "name": "IRIDIUM 33 DEB",
        "group": "iridium-33-debris",
        "lat": 60.42576580765137,
        "lon": 39.12701125129639,
        "alt_km": 715.7347242716396,
        "timestamp": "2025-12-02T07:10:09.501176+00:00",
        "meta_object_name": "IRIDIUM 33 DEB",
        "meta_object_id": "1997-051KT",
        "meta_epoch": "2025-12-01T15:05:30.511104",
        "meta_mean_motion": 14.64076144,
        "meta_eccentricity": 0.0075021,
        "meta_inclination": 86.1859,
        "meta_ra_of_asc_node": 32.6869,
        "meta_arg_of_pericenter": 205.0419,
        "meta_mean_anomaly": 287.6306,
        "meta_ephemeris_type": 0,
        "meta_classification_type": "U",
        "meta_norad_cat_id": 34696,
        "meta_element_set_no": 999,
        "meta_rev_at_epoch": 86510,
        "meta_bstar": 0.0055989172,
        "meta_mean_motion_dot": 0.00030736,
        "meta_mean_motion_ddot": 0,
        "tle_line1": "1 34696U 97051KT  25335.62882536  .00030736  00000+0  55989-2 0  9994",
        "tle_line2": "2 34696  86.1859  32.6869 0075021 205.0419 287.6306 14.64076144865106"
      },
      "geometry": {
        "type": "Point",
        "coordinates": [
          39.12701125129639,
          60.42576580765137
        ]
      }
    }
  ]
}